OBJECT_NAME,OBJECT_ID,EPOCH,MEAN_MOTION,ECCENTRICITY,INCLINATION,RA_OF_ASC_NODE,ARG_OF_PERICENTER,MEAN_ANOMALY,EPHEMERIS_TYPE,CLASSIFICATION_TYPE,NORAD_CAT_ID,ELEMENT_SET_NO,REV_AT_EPOCH,BSTAR,MEAN_MOTION_DOT,MEAN_MOTION_DDOT
GSAT0215 (GALILEO 19),2017-079A,2026-06-09T23:26:19.010688,1.70474602,.0003311,55.0750,221.7051,266.3689,93.6775,0,U,43055,999,5286,0,.49E-6,0
GSAT0216 (GALILEO 20),2017-079B,2026-06-10T06:25:34.900320,1.70474756,.00037016,55.0753,221.6973,276.7573,83.2861,0,U,43056,999,5288,0,.5E-6,0
GSAT0217 (GALILEO 21),2017-079C,2026-06-11T15:52:53.254272,1.70474004,.00043526,55.0734,221.6569,283.5415,76.5022,0,U,43057,999,5289,0,.57E-6,0
GSAT0218 (GALILEO 22),2017-079D,2026-06-11T07:05:06.741888,1.70474706,.0004381,55.0734,221.6644,272.9557,87.0844,0,U,43058,999,5291,0,.55E-6,0
BEIDOU-3 M7 (C27),2018-003A,2026-06-11T23:32:30.365664,1.86228264,.00049167,54.3332,302.4971,92.5162,267.5239,0,U,43107,999,5725,0,-.68E-6,0
BEIDOU-3 M4 (C22),2018-018A,2026-06-09T03:31:38.545824,1.86231351,.00076882,56.6431,63.4146,17.0743,342.9760,0,U,43207,999,5659,0,-.46E-6,0
BEIDOU-3 M3 (C21),2018-018B,2026-06-11T21:33:26.404992,1.86231163,.00087877,56.6458,63.3277,340.0142,19.9742,0,U,43208,999,5664,0,-.55E-6,0
IRNSS-1I,2018-035A,2026-06-11T20:20:50.179200,1.00270911,.00178861,28.7419,74.2800,181.8135,4.1621,0,U,43286,999,3002,0,.79E-6,0
COSMOS 2527 (756),2018-053A,2026-06-10T23:37:19.080768,2.13102302,.00073927,65.5740,74.1146,241.2390,118.7028,0,U,43508,999,6214,0,-.28E-6,0
BEIDOU-2 IGSO-7 (C16),2018-057A,2026-06-11T22:19:03.996768,1.00252608,.01048835,55.1941,163.1041,237.9036,304.3892,0,U,43539,999,2907,0,.35E-6,0
GSAT0221 (GALILEO 25),2018-060A,2026-06-10T14:42:06.878304,1.70475913,.0002678,57.1738,341.9578,307.2326,52.7584,0,U,43564,999,4905,0,-.63E-6,0
GSAT0222 (GALILEO 26),2018-060B,2026-06-10T19:58:24.296160,1.70475642,.00019097,57.1762,341.9557,252.3571,107.6372,0,U,43565,999,4910,0,-.64E-6,0
GSAT0219 (GALILEO 23),2018-060C,2026-06-10T11:11:49.199424,1.70475904,.00021959,57.1743,341.9669,328.4405,31.5620,0,U,43566,999,4907,0,-.63E-6,0
GSAT0220 (GALILEO 24),2018-060D,2026-06-11T20:39:23.261760,1.70475609,.00022524,57.1774,341.9298,315.5047,44.4900,0,U,43567,999,4908,0,-.67E-6,0
BEIDOU-3 M5 (C23),2018-062A,2026-06-11T17:42:06.582816,1.86228563,.00055526,54.0854,182.4894,288.4349,71.5686,0,U,43581,999,5353,0,.127E-5,0
BEIDOU-3 M6 (C24),2018-062B,2026-06-11T14:25:28.308576,1.86227777,.00048079,54.0847,182.4833,9.7323,350.3409,0,U,43582,999,5353,0,.128E-5,0
BEIDOU-3 M12 (C26),2018-067A,2026-06-12T01:49:59.261376,1.86227891,.00077022,54.1800,181.2138,30.1537,329.9521,0,U,43602,999,5302,0,.126E-5,0
BEIDOU-3 M13 (C32),2018-072A,2026-06-11T02:12:59.531616,1.86231513,.00074615,56.6193,62.8611,327.3083,32.6685,0,U,43622,999,5254,0,-.54E-6,0
BEIDOU-3 M14 (C33),2018-072B,2026-06-10T22:59:13.252992,1.86231499,.00061619,56.6207,62.8602,357.5003,2.5196,0,U,43623,999,5253,0,-.53E-6,0
BEIDOU-3 M16 (C35),2018-078A,2026-06-12T04:29:26.329056,1.86232190,.00072597,54.0948,300.1614,40.8592,319.1792,0,U,43647,999,5206,0,-.67E-6,0
BEIDOU-3 M15 (C34),2018-078B,2026-06-09T02:16:24.406752,1.86232356,.000433,54.0936,300.2703,57.2099,302.8231,0,U,43648,999,5202,0,-.6E-6,0
COSMOS 2529 (757),2018-086A,2026-06-11T01:56:22.833312,2.13102175,.00117747,64.2944,192.8006,256.0467,103.8983,0,U,43687,999,5915,0,.119E-5,0
BEIDOU-3 M17 (C36),2018-093A,2026-06-10T11:08:16.160352,1.86228347,.00100759,54.1687,182.5246,291.4418,158.4113,0,U,43706,999,5141,0,.127E-5,0
BEIDOU-3 M18 (C37),2018-093B,2026-06-11T06:24:52.343136,1.86226379,.0007903,54.1696,182.4894,320.4765,39.5298,0,U,43707,999,5142,0,.129E-5,0
GPS BIII-1  (PRN 04),2018-109A,2026-06-11T18:50:14.099424,2.00561303,.00381771,55.6786,92.4003,198.0454,345.0218,0,U,43873,999,5496,0,-.14E-6,0
BEIDOU-3 IGSO-1 (C38),2019-023A,2026-06-06T22:54:10.040832,1.00294886,.00254341,58.6799,37.7569,225.6649,92.8731,0,U,44204,999,710,0,-.215E-5,0
