GSAT0215 (GALILEO 19)   
1 43055U 17079A   26160.97660892  .00000049  00000+0  00000+0 0  9994
2 43055  55.0750 221.7051 0003311 266.3689  93.6775  1.70474602 52866
GSAT0216 (GALILEO 20)   
1 43056U 17079B   26161.26776505  .00000050  00000+0  00000+0 0  9999
2 43056  55.0753 221.6973 0003701 276.7573  83.2861  1.70474756 52885
GSAT0217 (GALILEO 21)   
1 43057U 17079C   26162.66172748  .00000057  00000+0  00000+0 0  9991
2 43057  55.0734 221.6569 0004352 283.5415  76.5022  1.70474004 52891
GSAT0218 (GALILEO 22)   
1 43058U 17079D   26162.29521692  .00000055  00000+0  00000+0 0  9995
2 43058  55.0734 221.6644 0004381 272.9557  87.0844  1.70474706 52918
BEIDOU-3 M7             
1 43107U 18003A   26162.98090701 -.00000068  00000+0  00000+0 0  9991
2 43107  54.3332 302.4971 0004916  92.5162 267.5239  1.86228264 57250
BEIDOU-3 M4             
1 43207U 18018A   26160.14697391 -.00000046  00000+0  00000+0 0  9998
2 43207  56.6431  63.4146 0007688  17.0743 342.9760  1.86231351 56594
BEIDOU-3 M3             
1 43208U 18018B   26162.89822228 -.00000055  00000+0  00000+0 0  9992
2 43208  56.6458  63.3277 0008787 340.0142  19.9742  1.86231163 56649
IRNSS-1I                
1 43286U 18035A   26162.84780300  .00000079  00000+0  00000+0 0  9991
2 43286  28.7419  74.2800 0017886 181.8135   4.1621  1.00270911 30024
COSMOS 2527 [GLONASS-M] 
1 43508U 18053A   26161.98424862 -.00000028  00000+0  00000+0 0  9995
2 43508  65.5740  74.1146 0007392 241.2390 118.7028  2.13102302 62148
BEIDOU-2 IGSO-7         
1 43539U 18057A   26162.92990737  .00000035  00000+0  00000+0 0  9994
2 43539  55.1941 163.1041 0104883 237.9036 304.3892  1.00252608 29072
GSAT0221 (GALILEO 25)   
1 43564U 18060A   26161.61257961 -.00000063  00000+0  00000+0 0  9998
2 43564  57.1738 341.9578 0002678 307.2326  52.7584  1.70475913 49054
GSAT0222 (GALILEO 26)   
1 43565U 18060B   26161.83222565 -.00000064  00000+0  00000+0 0  9996
2 43565  57.1762 341.9557 0001909 252.3571 107.6372  1.70475642 49107
GSAT0219 (GALILEO 23)   
1 43566U 18060C   26161.46654166 -.00000063  00000+0  00000+0 0  9991
2 43566  57.1743 341.9669 0002195 328.4405  31.5620  1.70475904 49078
GSAT0220 (GALILEO 24)   
1 43567U 18060D   26162.86068590 -.00000067  00000+0  00000+0 0  9991
2 43567  57.1774 341.9298 0002252 315.5047  44.4900  1.70475609 49081
BEIDOU-3 M5             
1 43581U 18062A   26162.73757619  .00000127  00000+0  00000+0 0  9998
2 43581  54.0854 182.4894 0005552 288.4349  71.5686  1.86228563 53530
BEIDOU-3 M6             
1 43582U 18062B   26162.60102209  .00000128  00000+0  00000+0 0  9995
2 43582  54.0847 182.4833 0004807   9.7323 350.3409  1.86227777 53531
BEIDOU-3 M12            
1 43602U 18067A   26163.07638034  .00000126  00000+0  00000+0 0  9993
2 43602  54.1800 181.2138 0007702  30.1537 329.9521  1.86227891 53029
BEIDOU-3 M13            
1 43622U 18072A   26162.09235569 -.00000054  00000+0  00000+0 0  9999
2 43622  56.6193  62.8611 0007461 327.3083  32.6685  1.86231513 52543
BEIDOU-3 M14            
1 43623U 18072B   26161.95779228 -.00000053  00000+0  00000+0 0  9998
2 43623  56.6207  62.8602 0006161 357.5003   2.5196  1.86231499 52538
BEIDOU-3 M16            
1 43647U 18078A   26163.18711029 -.00000067  00000+0  00000+0 0  9997
2 43647  54.0948 300.1614 0007259  40.8592 319.1792  1.86232190 52069
BEIDOU-3 M15            
1 43648U 18078B   26160.09472693 -.00000060  00000+0  00000+0 0  9999
2 43648  54.0936 300.2703 0004330  57.2099 302.8231  1.86232356 52025
COSMOS 2529 [GLONASS-M] 
1 43687U 18086A   26162.08081983  .00000119  00000+0  00000+0 0  9994
2 43687  64.2944 192.8006 0011774 256.0467 103.8983  2.13102175 59159
BEIDOU-3 M17            
1 43706U 18093A   26161.46407593  .00000127  00000+0  00000+0 0  9993
2 43706  54.1687 182.5246 0010075 291.4418 158.4113  1.86228347 51418
BEIDOU-3 M18            
1 43707U 18093B   26162.26727249  .00000129  00000+0  00000+0 0  9998
2 43707  54.1696 182.4894 0007903 320.4765  39.5298  1.86226379 51428
NAVSTAR 77 (USA 289)    
1 43873U 18109A   26162.78488541 -.00000014  00000+0  00000+0 0  9990
2 43873  55.6786  92.4003 0038177 198.0454 345.0218  2.00561303 54966
BEIDOU-3 IGSO-1         
1 44204U 19023A   26157.95428288 -.00000215  00000+0  00000+0 0  9993
2 44204  58.6799  37.7569 0025434 225.6649  92.8731  1.00294886  7105
